[{"OBJECT_NAME":"STARLINK-5198","OBJECT_ID":"2022-136BA","EPOCH":"2026-03-09T23:25:59.257920","MEAN_MOTION":15.08834432,"ECCENTRICITY":0.00011557,"INCLINATION":53.2185,"RA_OF_ASC_NODE":332.3902,"ARG_OF_PERICENTER":79.7283,"MEAN_ANOMALY":280.384,"EPHEMERIS_TYPE":0,"CLASSIFICATION_TYPE":"U","NORAD_CAT_ID":54099,"ELEMENT_SET_NO":999,"REV_AT_EPOCH":18703,"BSTAR":1.1884107e-5,"MEAN_MOTION_DOT":-9.9e-7,"MEAN_MOTION_DDOT":0},{"OBJECT_NAME":"TITAN 3C TRANSTAGE DEB","OBJECT_ID":"1965-082PP","EPOCH":"2026-03-08T23:49:16.681152","MEAN_MOTION":15.10619215,"ECCENTRICITY":0.0014169,"INCLINATION":32.2612,"RA_OF_ASC_NODE":312.9247,"ARG_OF_PERICENTER":37.7873,"MEAN_ANOMALY":322.3781,"EPHEMERIS_TYPE":0,"CLASSIFICATION_TYPE":"U","NORAD_CAT_ID":3454,"ELEMENT_SET_NO":999,"REV_AT_EPOCH":23071,"BSTAR":0.00075143557,"MEAN_MOTION_DOT":0.00012814,"MEAN_MOTION_DDOT":0}]
